[{"OBJECT_NAME":"TIANMU-1 10","OBJECT_ID":"2023-101D","EPOCH":"2026-03-09T23:06:46.939392","MEAN_MOTION":15.2921896,"ECCENTRICITY":0.00069292,"INCLINATION":97.2749,"RA_OF_ASC_NODE":122.1027,"ARG_OF_PERICENTER":133.6162,"MEAN_ANOMALY":226.5654,"EPHEMERIS_TYPE":0,"CLASSIFICATION_TYPE":"U","NORAD_CAT_ID":57402,"ELEMENT_SET_NO":999,"REV_AT_EPOCH":14647,"BSTAR":0.00032238884,"MEAN_MOTION_DOT":9.075e-5,"MEAN_MOTION_DDOT":0},{"OBJECT_NAME":"STARLINK-33758","OBJECT_ID":"2025-101L","EPOCH":"2026-03-08T20:04:55.124832","MEAN_MOTION":15.27581192,"ECCENTRICITY":5.078e-5,"INCLINATION":43.0012,"RA_OF_ASC_NODE":2.8821,"ARG_OF_PERICENTER":258.3313,"MEAN_ANOMALY":101.7481,"EPHEMERIS_TYPE":0,"CLASSIFICATION_TYPE":"U","NORAD_CAT_ID":64004,"ELEMENT_SET_NO":999,"REV_AT_EPOCH":4692,"BSTAR":0.0015990439,"MEAN_MOTION_DOT":0.00044004,"MEAN_MOTION_DDOT":0}]
